[{"OBJECT_NAME":"STARLINK-34836","OBJECT_ID":"2025-191W","EPOCH":"2026-03-09T15:37:19.177824","MEAN_MOTION":15.05645449,"ECCENTRICITY":0.0002985,"INCLINATION":97.6027,"RA_OF_ASC_NODE":301.4895,"ARG_OF_PERICENTER":66.6441,"MEAN_ANOMALY":293.5099,"EPHEMERIS_TYPE":0,"CLASSIFICATION_TYPE":"U","NORAD_CAT_ID":65399,"ELEMENT_SET_NO":999,"REV_AT_EPOCH":3026,"BSTAR":0.00093942,"MEAN_MOTION_DOT":0.00013519,"MEAN_MOTION_DDOT":0},{"OBJECT_NAME":"UNKNOWN","OBJECT_ID":"","EPOCH":"2026-03-07T15:14:41.564256","MEAN_MOTION":13.5413212,"ECCENTRICITY":0.0691594,"INCLINATION":65.6692,"RA_OF_ASC_NODE":150.3342,"ARG_OF_PERICENTER":189.8468,"MEAN_ANOMALY":168.843,"EPHEMERIS_TYPE":0,"CLASSIFICATION_TYPE":"U","NORAD_CAT_ID":87553,"ELEMENT_SET_NO":999,"REV_AT_EPOCH":60274,"BSTAR":0.0016336,"MEAN_MOTION_DOT":5.279e-5,"MEAN_MOTION_DDOT":0}]
